{
    "links": {
        "self": "http://www.neowsapp.com/rest/v1/neo/3611405?api_key=iIulBulltgU6a56xZRHN4H3l9WmuAYTsLGpBGhQ2"
    },
    "id": "3611405",
    "neo_reference_id": "3611405",
    "name": "(2012 TU231)",
    "designation": "2012 TU231",
    "nasa_jpl_url": "http://ssd.jpl.nasa.gov/sbdb.cgi?sstr=3611405",
    "absolute_magnitude_h": 26.2,
    "estimated_diameter": {
        "kilometers": {
            "estimated_diameter_min": 0.0152951935,
            "estimated_diameter_max": 0.0342010925
        },
        "meters": {
            "estimated_diameter_min": 15.2951935344,
            "estimated_diameter_max": 34.201092472
        },
        "miles": {
            "estimated_diameter_min": 0.0095039897,
            "estimated_diameter_max": 0.021251567
        },
        "feet": {
            "estimated_diameter_min": 50.1810827555,
            "estimated_diameter_max": 112.2083122258
        }
    },
    "is_potentially_hazardous_asteroid": false,
    "close_approach_data": [
        {
            "close_approach_date": "2012-10-12",
            "close_approach_date_full": "2012-Oct-12 19:40",
            "epoch_date_close_approach": 1350070800000,
            "relative_velocity": {
                "kilometers_per_second": "10.1639235237",
                "kilometers_per_hour": "36590.1246852131",
                "miles_per_hour": "22735.6805300981"
            },
            "miss_distance": {
                "astronomical": "0.0088831815",
                "lunar": "3.4555576035",
                "kilometers": "1328905.031223405",
                "miles": "825743.296176789"
            },
            "orbiting_body": "Earth"
        },
        {
            "close_approach_date": "2019-07-08",
            "close_approach_date_full": "2019-Jul-08 20:58",
            "epoch_date_close_approach": 1562619480000,
            "relative_velocity": {
                "kilometers_per_second": "16.4280988858",
                "kilometers_per_hour": "59141.155988754",
                "miles_per_hour": "36748.0143975677"
            },
            "miss_distance": {
                "astronomical": "0.3195257978",
                "lunar": "124.2955353442",
                "kilometers": "47800378.760930686",
                "miles": "29701778.0722920268"
            },
            "orbiting_body": "Earth"
        }
    ],
    "orbital_data": {
        "orbit_id": "7",
        "orbit_determination_date": "2017-04-06 08:48:33",
        "first_observation_date": "2012-10-15",
        "last_observation_date": "2012-11-07",
        "data_arc_in_days": 23,
        "observations_used": 34,
        "orbit_uncertainty": "7",
        "minimum_orbit_intersection": ".00348533",
        "jupiter_tisserand_invariant": "4.001",
        "epoch_osculation": "2459000.5",
        "eccentricity": ".4532374923864932",
        "semi_major_axis": "1.744275556639692",
        "inclination": "9.609725003175953",
        "ascending_node_longitude": "19.23159876564062",
        "orbital_period": "841.4359616855852",
        "perihelion_distance": ".9537044773172633",
        "perihelion_argument": "327.5368145254352",
        "aphelion_distance": "2.534846635962121",
        "perihelion_time": "2458711.811692000109",
        "mean_anomaly": "123.5124187843957",
        "mean_motion": ".4278400453420592",
        "equinox": "J2000",
        "orbit_class": {
            "orbit_class_type": "APO",
            "orbit_class_description": "Near-Earth asteroid orbits which cross the Earth’s orbit similar to that of 1862 Apollo",
            "orbit_class_range": "a (semi-major axis) > 1.0 AU; q (perihelion) < 1.017 AU"
        }
    },
    "is_sentry_object": false
}